{"type": "FeatureCollection", "features": [ {"type": "Feature", "properties": {"norad_id": 30134, "name": "FENGYUN 1C DEB", "group": "fengyun-1c-debris", "lat": -80.8707641287941, "lon": 119.12998937579864, "alt_km": 857.6088915129158, "timestamp": "2025-12-18T10:51:26.080779+00:00", "meta": {"OBJECT_NAME": "FENGYUN 1C DEB", "OBJECT_ID": "1999-025SP", "EPOCH": "2025-12-17T19:08:47.925888", "MEAN_MOTION": 14.13356734, "ECCENTRICITY": 0.00192461, "INCLINATION": 98.6932, "RA_OF_ASC_NODE": 10.6848, "ARG_OF_PERICENTER": 169.1385, "MEAN_ANOMALY": 9.0192, "EPHEMERIS_TYPE": 0, "CLASSIFICATION_TYPE": "U", "NORAD_CAT_ID": 30134, "ELEMENT_SET_NO": 999, "REV_AT_EPOCH": 97317, "BSTAR": 0.00040969582, "MEAN_MOTION_DOT": 7.28e-06, "MEAN_MOTION_DDOT": 0}, "tle": {"line1": "1 30134U 99025SP  25351.79777692  .00000728  00000+0  40970-3 0  9995", "line2": "2 30134  98.6932  10.6848 0019246 169.1385   9.0192 14.13356734973177"}}, "geometry": {"type": "Point", "coordinates": [119.12998937579864, -80.8707641287941]}}, {"type": "Feature", "properties": {"norad_id": 30136, "name": "FENGYUN 1C DEB", "group": "fengyun-1c-debris", "lat": -81.31519935723823, "lon": -15.363320563935414, "alt_km": 994.4234264663937, "timestamp": "2025-12-18T10:51:26.080790+00:00", "meta": {"OBJECT_NAME": "FENGYUN 1C DEB", "OBJECT_ID": "1999-025SR", "EPOCH": "2025-12-17T16:29:29.726304", "MEAN_MOTION": 13.95330075, "ECCENTRICITY": 0.01294156, "INCLINATION": 98.5565, "RA_OF_ASC_NODE": 244.1967, "ARG_OF_PERICENTER": 55.8738, "MEAN_ANOMALY": 331.7164, "EPHEMERIS_TYPE": 0, "CLASSIFICATION_TYPE": "U", "NORAD_CAT_ID": 30136, "ELEMENT_SET_NO": 999, "REV_AT_EPOCH": 96160, "BSTAR": 0.00028945859, "MEAN_MOTION_DOT": 3.81e-06, "MEAN_MOTION_DDOT": 0}, "tle": {"line1": "1 30136U 99025SR  25351.68714961  .00000381  00000+0  28946-3 0  9999", "line2": "2 30136  98.5565 244.1967 0129415  55.8738 331.7164 13.95330075961607"}}, "geometry": {"type": "Point", "coordinates": [-15.363320563935414, -81.31519935723823]}}, {"type": "Feature", "properties": {"norad_id": 30138, "name": "FENGYUN 1C DEB", "group": "fengyun-1c-debris", "lat": 33.170970213101214, "lon": -128.5593856166686, "alt_km": 809.6170117658085, "timestamp": "2025-12-18T10:51:26.080801+00:00", "meta": {"OBJECT_NAME": "FENGYUN 1C DEB", "OBJECT_ID": "1999-025ST", "EPOCH": "2025-12-17T14:28:48.537120", "MEAN_MOTION": 14.20044112, "ECCENTRICITY": 0.00204307, "INCLINATION": 98.7592, "RA_OF_ASC_NODE": 44.8163, "ARG_OF_PERICENTER": 125.0547, "MEAN_ANOMALY": 3.1267, "EPHEMERIS_TYPE": 0, "CLASSIFICATION_TYPE": "U", "NORAD_CAT_ID": 30138, "ELEMENT_SET_NO": 999, "REV_AT_EPOCH": 97470, "BSTAR": 0.000658592, "MEAN_MOTION_DOT": 1.361e-05, "MEAN_MOTION_DDOT": 0}, "tle": {"line1": "1 30138U 99025ST  25351.60333955  .00001361  00000+0  65859-3 0  9996", "line2": "2 30138  98.7592  44.8163 0020430 125.0547   3.1267 14.20044112974701"}}, "geometry": {"type": "Point", "coordinates": [-128.5593856166686, 33.170970213101214]}}, {"type": "Feature", "properties": {"norad_id": 30139, "name": "FENGYUN 1C DEB", "group": "fengyun-1c-debris", "lat": 9.741919812786913, "lon": -165.85905259076205, "alt_km": 890.8838220212492, "timestamp": "2025-12-18T10:51:26.080811+00:00", "meta": {"OBJECT_NAME": "FENGYUN 1C DEB", "OBJECT_ID": "1999-025SU", "EPOCH": "2025-12-17T12:42:34.100640", "MEAN_MOTION": 14.03670109, "ECCENTRICITY": 0.01309149, "INCLINATION": 98.3654, "RA_OF_ASC_NODE": 194.739, "ARG_OF_PERICENTER": 276.8603, "MEAN_ANOMALY": 110.9913, "EPHEMERIS_TYPE": 0, "CLASSIFICATION_TYPE": "U", "NORAD_CAT_ID": 30139, "ELEMENT_SET_NO": 999, "REV_AT_EPOCH": 96317, "BSTAR": 0.00083602439, "MEAN_MOTION_DOT": 1.377e-05, "MEAN_MOTION_DDOT": 0}, "tle": {"line1": "1 30139U 99025SU  25351.52956135  .00001377  00000+0  83602-3 0  9992", "line2": "2 30139  98.3654 194.7390 0130914 276.8603 110.9913 14.03670109963177"}}, "geometry": {"type": "Point", "coordinates": [-165.85905259076205, 9.741919812786913]}}, {"type": "Feature", "properties": {"norad_id": 30140, "name": "FENGYUN 1C DEB", "group": "fengyun-1c-debris", "lat": -23.46469816878223, "lon": 59.18276572770497, "alt_km": 806.7526380001191, "timestamp": "2025-12-18T10:51:26.080822+00:00", "meta": {"OBJECT_NAME": "FENGYUN 1C DEB", "OBJECT_ID": "1999-025SV", "EPOCH": "2025-12-17T02:59:47.787360", "MEAN_MOTION": 14.20772065, "ECCENTRICITY": 0.00407643, "INCLINATION": 98.8267, "RA_OF_ASC_NODE": 53.9898, "ARG_OF_PERICENTER": 296.7324, "MEAN_ANOMALY": 93.0914, "EPHEMERIS_TYPE": 0, "CLASSIFICATION_TYPE": "U", "NORAD_CAT_ID": 30140, "ELEMENT_SET_NO": 999, "REV_AT_EPOCH": 97206, "BSTAR": 0.0010643655, "MEAN_MOTION_DOT": 2.272e-05, "MEAN_MOTION_DDOT": 0}, "tle": {"line1": "1 30140U 99025SV  25351.12485865  .00002272  00000+0  10644-2 0  9997", "line2": "2 30140  98.8267  53.9898 0040764 296.7324  93.0914 14.20772065972060"}}, "geometry": {"type": "Point", "coordinates": [59.18276572770497, -23.46469816878223]}}, {"type": "Feature", "properties": {"norad_id": 30141, "name": "FENGYUN 1C DEB", "group": "fengyun-1c-debris", "lat": -53.45455788671881, "lon": -72.99943222252776, "alt_km": 723.4171600324962, "timestamp": "2025-12-18T10:51:26.080833+00:00", "meta": {"OBJECT_NAME": "FENGYUN 1C DEB", "OBJECT_ID": "1999-025SW", "EPOCH": "2025-12-16T01:12:31.886784", "MEAN_MOTION": 14.51638622, "ECCENTRICITY": 0.00194035, "INCLINATION": 99.0142, "RA_OF_ASC_NODE": 272.0589, "ARG_OF_PERICENTER": 27.2758, "MEAN_ANOMALY": 332.945, "EPHEMERIS_TYPE": 0, "CLASSIFICATION_TYPE": "U", "NORAD_CAT_ID": 30141, "ELEMENT_SET_NO": 999, "REV_AT_EPOCH": 98292, "BSTAR": 0.0018992593, "MEAN_MOTION_DOT": 7.589e-05, "MEAN_MOTION_DDOT": 0}, "tle": {"line1": "1 30141U 99025SW  25350.05036906  .00007589  00000+0  18993-2 0  9998", "line2": "2 30141  99.0142 272.0589 0019403  27.2758 332.9450 14.51638622982921"}}, "geometry": {"type": "Point", "coordinates": [-72.99943222252776, -53.45455788671881]}}, {"type": "Feature", "properties": {"norad_id": 30142, "name": "FENGYUN 1C DEB", "group": "fengyun-1c-debris", "lat": 33.13953942986193, "lon": 62.290394798397315, "alt_km": 869.7295037066588, "timestamp": "2025-12-18T10:51:26.080843+00:00", "meta": {"OBJECT_NAME": "FENGYUN 1C DEB", "OBJECT_ID": "1999-025SX", "EPOCH": "2025-12-17T17:40:27.238368", "MEAN_MOTION": 14.10507975, "ECCENTRICITY": 0.01016194, "INCLINATION": 99.1282, "RA_OF_ASC_NODE": 67.589, "ARG_OF_PERICENTER": 294.0002, "MEAN_ANOMALY": 65.0556, "EPHEMERIS_TYPE": 0, "CLASSIFICATION_TYPE": "U", "NORAD_CAT_ID": 30142, "ELEMENT_SET_NO": 999, "REV_AT_EPOCH": 96369, "BSTAR": 0.0012461021, "MEAN_MOTION_DOT": 2.282e-05, "MEAN_MOTION_DDOT": 0}, "tle": {"line1": "1 30142U 99025SX  25351.73642637  .00002282  00000+0  12461-2 0  9998", "line2": "2 30142  99.1282  67.5890 0101619 294.0002  65.0556 14.10507975963692"}}, "geometry": {"type": "Point", "coordinates": [62.290394798397315, 33.13953942986193]}}, {"type": "Feature", "properties": {"norad_id": 30143, "name": "FENGYUN 1C DEB", "group": "fengyun-1c-debris", "lat": 19.956546317699843, "lon": -1.290297045715225, "alt_km": 916.302660925573, "timestamp": "2025-12-18T10:51:26.080852+00:00", "meta": {"OBJECT_NAME": "FENGYUN 1C DEB", "OBJECT_ID": "1999-025SY", "EPOCH": "2025-12-17T18:45:29.921184", "MEAN_MOTION": 14.02601197, "ECCENTRICITY": 0.01035769, "INCLINATION": 98.7343, "RA_OF_ASC_NODE": 174.8664, "ARG_OF_PERICENTER": 276.8767, "MEAN_ANOMALY": 98.7098, "EPHEMERIS_TYPE": 0, "CLASSIFICATION_TYPE": "U", "NORAD_CAT_ID": 30143, "ELEMENT_SET_NO": 999, "REV_AT_EPOCH": 96290, "BSTAR": 0.00092006155, "MEAN_MOTION_DOT": 1.444e-05, "MEAN_MOTION_DDOT": 0}, "tle": {"line1": "1 30143U 99025SY  25351.78159631  .00001444  00000+0  92006-3 0  9994", "line2": "2 30143  98.7343 174.8664 0103576 276.8767  98.7098 14.02601197962906"}}, "geometry": {"type": "Point", "coordinates": [-1.290297045715225, 19.956546317699843]}}, {"type": "Feature", "properties": {"norad_id": 30144, "name": "FENGYUN 1C DEB", "group": "fengyun-1c-debris", "lat": -9.924714582531381, "lon": -13.33860729608996, "alt_km": 901.3144404353188, "timestamp": "2025-12-18T10:51:26.080863+00:00", "meta": {"OBJECT_NAME": "FENGYUN 1C DEB", "OBJECT_ID": "1999-025SZ", "EPOCH": "2025-12-17T18:31:18.569280", "MEAN_MOTION": 13.91825894, "ECCENTRICITY": 0.01256557, "INCLINATION": 99.01, "RA_OF_ASC_NODE": 344.4093, "ARG_OF_PERICENTER": 277.0307, "MEAN_ANOMALY": 263.0937, "EPHEMERIS_TYPE": 0, "CLASSIFICATION_TYPE": "U", "NORAD_CAT_ID": 30144, "ELEMENT_SET_NO": 999, "REV_AT_EPOCH": 95910, "BSTAR": 0.00042271122, "MEAN_MOTION_DOT": 5.3e-06, "MEAN_MOTION_DDOT": 0}, "tle": {"line1": "1 30144U 99025SZ  25351.77174270  .00000530  00000+0  42271-3 0  9994", "line2": "2 30144  99.0100 344.4093 0125655 277.0307 263.0937 13.91825894959104"}}, "geometry": {"type": "Point", "coordinates": [-13.33860729608996, -9.924714582531381]}}, {"type": "Feature", "properties": {"norad_id": 30145, "name": "FENGYUN 1C DEB", "group": "fengyun-1c-debris", "lat": 18.660751862084208, "lon": -74.5943633028171, "alt_km": 787.474433611148, "timestamp": "2025-12-18T10:51:26.080873+00:00", "meta": {"OBJECT_NAME": "FENGYUN 1C DEB", "OBJECT_ID": "1999-025TA", "EPOCH": "2025-12-17T19:31:48.914976", "MEAN_MOTION": 14.14079888, "ECCENTRICITY": 0.00908854, "INCLINATION": 99.2703, "RA_OF_ASC_NODE": 101.5815, "ARG_OF_PERICENTER": 134.8173, "MEAN_ANOMALY": 16.4189, "EPHEMERIS_TYPE": 0, "CLASSIFICATION_TYPE": "U", "NORAD_CAT_ID": 30145, "ELEMENT_SET_NO": 999, "REV_AT_EPOCH": 96267, "BSTAR": 0.002155783, "MEAN_MOTION_DOT": 4.222e-05, "MEAN_MOTION_DDOT": 0}, "tle": {"line1": "1 30145U 99025TA  25351.81376059  .00004222  00000+0  21558-2 0  9995", "line2": "2 30145  99.2703 101.5815 0090885 134.8173  16.4189 14.14079888962672"}}, "geometry": {"type": "Point", "coordinates": [-74.5943633028171, 18.660751862084208]}}]}